NORAD_CAT_ID,OBJECT_NAME,OBJECT_TYPE,EPOCH,MEAN_MOTION,ECCENTRICITY,INCLINATION,RA_OF_ASC_NODE,ARG_OF_PERICENTER,MEAN_ANOMALY,BSTAR,MEAN_MOTION_DOT,MEAN_MOTION_DDOT,TLE_LINE0,TLE_LINE1,TLE_LINE2,SEMIMAJOR_AXIS,PERIOD,APOGEE,PERIGEE,DECAYED
53871.0,STARLINK-4740,PAYLOAD,2023-11-01 07:55:30,15.08845467,0.0001572,53.2153,161.5526,88.1572,271.96,0.00028677,4.28e-05,0.0,0 STARLINK-4740,1 53871U 22114BF  23305.33021375  .00004280  00000-0  28677-3 0  9998,2 53871  53.2153 161.5526 0001572  88.1572 271.9600 15.08845467 63122,6917.864,95.437,540.816,538.641,0.0
53871.0,STARLINK-4740,PAYLOAD,2023-11-01 20:38:35,15.08849057,0.000147,53.2152,159.1757,81.8005,278.3154,0.00025103,3.71e-05,0.0,0 STARLINK-4740,1 53871U 22114BF  23305.86013167  .00003710  00000-0  25103-3 0  9994,2 53871  53.2152 159.1757 0001470  81.8005 278.3154 15.08849057 63740,6917.853,95.437,540.735,538.701,0.0
53871.0,STARLINK-4740,PAYLOAD,2023-11-02 07:46:17,15.08845976,0.0001532,53.2154,157.0944,85.6585,274.4582,0.00018281,2.623e-05,0.0,0 STARLINK-4740,1 53871U 22114BF  23306.32381136  .00002623  00000-0  18281-3 0  9991,2 53871  53.2154 157.0944 0001532  85.6585 274.4582 15.08845976 63277,6917.862,95.437,540.787,538.667,0.0
53871.0,STARLINK-4740,PAYLOAD,2023-11-02 20:29:22,15.08844281,0.0001499,53.2151,154.7153,88.2568,271.8595,0.00026725,3.968e-05,0.0,0 STARLINK-4740,1 53871U 22114BF  23306.85373239  .00003968  00000-0  26725-3 0  9999,2 53871  53.2151 154.7153 0001499  88.2568 271.8595 15.08844281 63893,6917.867,95.437,540.769,538.695,0.0
53871.0,STARLINK-4740,PAYLOAD,2023-11-03 04:26:18,15.08834141,0.0001616,53.2152,153.2283,78.2051,281.9122,-7.3117e-05,-1.451e-05,0.0,0 STARLINK-4740,1 53871U 22114BF  23307.18493511 -.00001451  00000-0 -73117-4 0  9997,2 53871  53.2152 153.2283 0001616  78.2051 281.9122 15.08834141 63408,6917.898,95.438,540.881,538.645,0.0
53871.0,STARLINK-4740,PAYLOAD,2023-11-03 13:58:37,15.08839888,0.0001436,53.2153,151.4439,88.09,272.0257,0.00010981,1.46e-05,0.0,0 STARLINK-4740,1 53871U 22114BF  23307.58237451  .00001460  00000-0  10981-3 0  9997,2 53871  53.2153 151.4439 0001436  88.0900 272.0257 15.08839888 64004,6917.881,95.438,540.739,538.752,0.0
53871.0,STARLINK-4740,PAYLOAD,2023-11-03 20:20:09,15.0884624,0.0001462,53.2153,150.2549,87.8827,272.2333,0.00038634,5.867e-05,0.0,0 STARLINK-4740,1 53871U 22114BF  23307.84733302  .00005867  00000-0  38634-3 0  9992,2 53871  53.2153 150.2549 0001462  87.8827 272.2333 15.08846240 63508,6917.861,95.437,540.738,538.715,0.0
53871.0,STARLINK-4740,PAYLOAD,2023-11-03 21:55:32,15.08848645,0.0001456,53.2153,149.9576,86.8439,273.272,0.00047263,7.244e-05,0.0,0 STARLINK-4740,1 53871U 22114BF  23307.91357269  .00007244  00000-0  47263-3 0  9993,2 53871  53.2153 149.9576 0001456  86.8439 273.2720 15.08848645 64057,6917.854,95.437,540.726,538.712,0.0
53871.0,STARLINK-4740,PAYLOAD,2023-11-04 20:10:57,15.08842774,0.0001325,53.2159,145.7946,90.6347,269.4797,0.00061783,9.559e-05,0.0,0 STARLINK-4740,1 53871U 22114BF  23308.84093857  .00009559  00000-0  61783-3 0  9990,2 53871  53.2159 145.7946 0001325  90.6347 269.4797 15.08842774 63657,6917.872,95.437,540.654,538.82,0.0
53871.0,STARLINK-4740,PAYLOAD,2023-11-05 05:43:15,15.08844564,0.0001413,53.216,144.0097,86.468,273.6474,0.00062097,9.61e-05,0.0,0 STARLINK-4740,1 53871U 22114BF  23309.23837886  .00009610  00000-0  62097-3 0  9999,2 53871  53.2160 144.0097 0001413  86.4680 273.6474 15.08844564 64254,6917.866,95.437,540.709,538.754,0.0
53871.0,STARLINK-4740,PAYLOAD,2023-11-05 20:01:43,15.08859511,0.0001228,53.2159,141.3349,91.4168,268.6965,0.00072009,0.00011197,0.0,0 STARLINK-4740,1 53871U 22114BF  23309.83453287  .00011197  00000-0  72009-3 0  9991,2 53871  53.2159 141.3349 0001228  91.4168 268.6965 15.08859511 64340,6917.821,95.436,540.535,538.836,0.0
53871.0,STARLINK-4740,PAYLOAD,2023-11-06 11:55:34,15.08858975,0.0001446,53.2148,138.3639,101.741,258.3745,0.00044914,6.871e-05,0.0,0 STARLINK-4740,1 53871U 22114BF  23310.49692724  .00006871  00000-0  44914-3 0  9993,2 53871  53.2148 138.3639 0001446 101.7410 258.3745 15.08858975 63909,6917.822,95.436,540.688,538.687,0.0
53871.0,STARLINK-4740,PAYLOAD,2023-11-06 19:52:30,15.08848487,0.0001211,53.2147,136.8752,100.1568,259.9561,0.000144,2.005e-05,0.0,0 STARLINK-4740,1 53871U 22114BF  23310.82812687  .00002005  00000-0  14400-3 0  9994,2 53871  53.2147 136.8752 0001211 100.1568 259.9561 15.08848487 63959,6917.854,95.437,540.557,538.882,0.0
53871.0,STARLINK-4740,PAYLOAD,2023-11-07 11:46:22,15.08836691,0.0001045,53.2153,133.9004,88.0549,272.0563,-0.00011098,-2.053e-05,0.0,0 STARLINK-4740,1 53871U 22114BF  23311.49053292 -.00002053  00000-0 -11098-3 0  9992,2 53871  53.2153 133.9004 0001045  88.0549 272.0563 15.08836691 64056,6917.891,95.438,540.478,539.033,0.0
53871.0,STARLINK-4740,PAYLOAD,2023-11-08 05:15:37,15.08829229,0.0001152,53.2157,130.6293,89.1495,270.9629,-0.00016185,-2.862e-05,0.0,0 STARLINK-4740,1 53871U 22114BF  23312.21918067 -.00002862  00000-0 -16185-3 0  9993,2 53871  53.2157 130.6293 0001152  89.1495 270.9629 15.08829229 64166,6917.913,95.438,540.575,538.981,0.0
53871.0,STARLINK-4740,PAYLOAD,2023-11-08 19:34:04,15.08865283,8.85e-05,53.2165,127.9534,115.7449,244.3635,0.00041866,6.386e-05,0.0,0 STARLINK-4740,1 53871U 22114BF  23312.81532609  .00006386  00000-0  41866-3 0  9990,2 53871  53.2165 127.9534 0000885 115.7449 244.3635 15.08865283 64251,6917.803,95.436,540.28,539.056,0.0
53871.0,STARLINK-4740,PAYLOAD,2023-11-09 11:27:57,15.0883589,0.0001279,53.2156,124.9788,89.1326,270.9813,0.00032045,4.815e-05,0.0,0 STARLINK-4740,1 53871U 22114BF  23313.47774763  .00004815  00000-0  32045-3 0  9996,2 53871  53.2156 124.9788 0001279  89.1326 270.9813 15.08835890 64350,6917.893,95.438,540.643,538.873,0.0
53871.0,STARLINK-4740,PAYLOAD,2023-11-09 17:49:29,15.08842825,0.0001284,53.2154,123.7897,88.2836,271.8303,0.00039961,6.078e-05,0.0,0 STARLINK-4740,1 53871U 22114BF  23313.74270581  .00006078  00000-0  39961-3 0  9992,2 53871  53.2154 123.7897 0001284  88.2836 271.8303 15.08842825 64932,6917.872,95.437,540.625,538.848,0.0
53871.0,STARLINK-4740,PAYLOAD,2023-11-10 04:57:11,15.08845976,0.0001319,53.2154,121.7082,86.5958,273.5185,0.00034855,5.264e-05,0.0,0 STARLINK-4740,1 53871U 22114BF  23314.20638533  .00005264  00000-0  34855-3 0  9992,2 53871  53.2154 121.7082 0001319  86.5958 273.5185 15.08845976 65007,6917.862,95.437,540.64,538.815,0.0
53871.0,STARLINK-4740,PAYLOAD,2023-11-10 17:40:16,15.08843543,9.35e-05,53.2169,119.3299,85.3032,274.8067,0.00019234,2.775e-05,0.0,0 STARLINK-4740,1 53871U 22114BF  23314.73630441  .00002775  00000-0  19234-3 0  9998,2 53871  53.2169 119.3299 0000935  85.3032 274.8067 15.08843543 64548,6917.87,95.437,540.381,539.088,0.0
53871.0,STARLINK-4740,PAYLOAD,2023-11-11 11:09:29,15.08865014,0.0001447,53.2163,116.0573,93.1761,266.9396,0.00035102,5.307e-05,0.0,0 STARLINK-4740,1 53871U 22114BF  23315.46493008  .00005307  00000-0  35102-3 0  9991,2 53871  53.2163 116.0573 0001447  93.1761 266.9396 15.08865014 64652,6917.804,95.436,540.67,538.668,0.0
53871.0,STARLINK-4740,PAYLOAD,2023-11-11 14:20:16,15.08866752,0.0001441,53.2164,115.4626,93.1172,266.9985,0.00036348,5.506e-05,0.0,0 STARLINK-4740,1 53871U 22114BF  23315.59740756  .00005506  00000-0  36348-3 0  9994,2 53871  53.2164 115.4626 0001441  93.1172 266.9985 15.08866752 65212,6917.799,95.436,540.66,538.667,0.0
53871.0,STARLINK-4740,PAYLOAD,2023-11-11 17:31:02,15.08866332,0.0001433,53.2171,114.8687,93.7319,266.3837,0.00029937,4.483e-05,0.0,0 STARLINK-4740,1 53871U 22114BF  23315.72988513  .00004483  00000-0  29937-3 0  9993,2 53871  53.2171 114.8687 0001433  93.7319 266.3837 15.08866332 65236,6917.8,95.436,540.656,538.674,0.0
53871.0,STARLINK-4740,PAYLOAD,2023-11-12 11:00:17,15.08840926,0.000143,53.2176,111.5968,110.9297,249.1849,-3.3132e-06,-3.41e-06,0.0,0 STARLINK-4740,1 53871U 22114BF  23316.45853454 -.00000341  00000-0 -33132-5 0  9994,2 53871  53.2176 111.5968 0001430 110.9297 249.1849 15.08840926 64806,6917.878,95.437,540.732,538.753,0.0
53871.0,STARLINK-4740,PAYLOAD,2023-11-12 14:11:03,15.08838989,9.6e-05,53.2177,111.0017,106.0614,254.0484,-0.00010286,-1.924e-05,0.0,0 STARLINK-4740,1 53871U 22114BF  23316.59101328 -.00001924  00000-0 -10286-3 0  9996,2 53871  53.2177 111.0017 0000960 106.0614 254.0484 15.08838989 65361,6917.883,95.438,540.413,539.084,0.0
53871.0,STARLINK-4740,PAYLOAD,2023-11-12 20:32:36,15.08836155,0.0001163,53.2162,109.8127,101.661,258.4512,-0.00016464,-2.907e-05,0.0,0 STARLINK-4740,1 53871U 22114BF  23316.85597361 -.00002907  00000-0 -16464-3 0  9997,2 53871  53.2162 109.8127 0001163 101.6610 258.4512 15.08836155 65403,6917.892,95.438,540.562,538.953,0.0
53871.0,STARLINK-4740,PAYLOAD,2023-11-13 10:51:04,15.08840178,0.0001303,53.2162,107.137,112.9055,247.2074,5.6559e-05,6.12e-06,0.0,0 STARLINK-4740,1 53871U 22114BF  23317.45213484  .00000612  00000-0  56559-4 0  9994,2 53871  53.2162 107.1370 0001303 112.9055 247.2074 15.08840178 65496,6917.88,95.438,540.646,538.843,0.0
53871.0,STARLINK-4740,PAYLOAD,2023-11-14 02:44:55,15.08843661,0.0001075,53.216,104.163,107.459,252.652,0.00022775,3.339e-05,0.0,0 STARLINK-4740,1 53871U 22114BF  23318.11453519  .00003339  00000-0  22775-3 0  9994,2 53871  53.2160 104.1630 0001075 107.4590 252.6520 15.08843661 65057,6917.869,95.437,540.478,538.991,0.0
53871.0,STARLINK-4740,PAYLOAD,2023-11-14 10:41:52,15.08826146,0.0001055,53.2159,102.6762,95.36,264.7513,1.3564e-05,-7.2e-07,0.0,0 STARLINK-4740,1 53871U 22114BF  23318.44574375 -.00000072  00000-0  13564-4 0  9993,2 53871  53.2159 102.6762 0001055  95.3600 264.7513 15.08826146 65100,6917.923,95.438,540.518,539.058,0.0
53871.0,STARLINK-4740,PAYLOAD,2023-11-14 12:17:15,15.0882835,0.0001168,53.2155,102.3785,93.8548,266.2578,5.8547e-05,6.44e-06,0.0,0 STARLINK-4740,1 53871U 22114BF  23318.51198404  .00000644  00000-0  58547-4 0  9990,2 53871  53.2155 102.3785 0001168  93.8548 266.2578 15.08828350 65654,6917.916,95.438,540.589,538.973,0.0
